{
  "garages": [
    {
      "name": "Garage Losch Luxembourg",
      "address": "5, rue des Joncs, L-1818 Howald",
      "phone": "+352 40 30 40 1",
      "services": ["General Repair", "Electric Cars", "Body Work", "Tire Service"],
      "opening_hours": "Mon-Fri: 8:00-18:00, Sat: 9:00-12:00",
      "latitude": 49.5941,
      "longitude": 6.1390,
      "url": "https://www.losch.lu"
    },
    {
      "name": "Garage Arnold Kontz",
      "address": "184, Route de Thionville, L-2610 Luxembourg",
      "phone": "+352 49 19 41 1",
      "services": ["General Repair", "Tire Service", "Body Work", "Mercedes-Benz Specialist"],
      "opening_hours": "Mon-Fri: 8:00-18:00",
      "latitude": 49.5960,
      "longitude": 6.1375,
      "url": "https://www.arnoldkontz.lu"
    },
    {
      "name": "Garage M. Losch",
      "address": "6, rue de Bitbourg, L-1273 Luxembourg",
      "phone": "+352 26 12 12 1",
      "services": ["Electric Cars", "General Repair", "Volkswagen Specialist"],
      "opening_hours": "Mon-Fri: 7:30-18:00, Sat: 8:00-12:00",
      "latitude": 49.6198,
      "longitude": 6.1385,
      "url": "https://www.losch.lu"
    },
    {
      "name": "Garage Autopolis",
      "address": "Zone d'activit√©s Bourmicht, L-8070 Bertrange",
      "phone": "+352 43 96 96 1",
      "services": ["General Repair", "Electric Cars", "BMW Specialist", "MINI Specialist"],
      "opening_hours": "Mon-Fri: 8:00-18:00, Sat: 8:30-17:00",
      "latitude": 49.6089,
      "longitude": 6.0531,
      "url": "https://www.autopolis.lu"
    },
    {
      "name": "Garage Intini",
      "address": "8, rue de l'Industrie, L-3895 Foetz",
      "phone": "+352 57 84 84",
      "services": ["General Repair", "Body Work", "Alfa Romeo Specialist", "Fiat Specialist"],
      "opening_hours": "Mon-Fri: 8:00-12:00, 13:30-18:00",
      "latitude": 49.5032,
      "longitude": 6.0039,
      "url": "https://www.intini.lu"
    },
    {
      "name": "Garage Renault Dacia Esch",
      "address": "rue Jos Kieffer, L-4176 Esch-sur-Alzette",
      "phone": "+352 57 29 76",
      "services": ["General Repair", "Tire Service", "Renault Specialist", "Dacia Specialist"],
      "opening_hours": "Mon-Fri: 8:00-18:00, Sat: 8:00-12:00",
      "latitude": 49.4958,
      "longitude": 5.9806,
      "url": "https://www.renault.lu"
    },
    {
      "name": "Garage Schmitz",
      "address": "19, rue de Bouillon, L-1248 Luxembourg",
      "phone": "+352 48 45 45",
      "services": ["General Repair", "Electric Cars", "Audi Specialist", "Body Work"],
      "opening_hours": "Mon-Thu: 7:30-18:00, Fri: 7:30-17:00",
      "latitude": 49.6067,
      "longitude": 6.1294,
      "url": "https://www.schmitz.lu"
    },
    {
      "name": "Garage Muzzolini",
      "address": "4, rue de Cessange, L-1320 Luxembourg",
      "phone": "+352 48 81 45",
      "services": ["General Repair", "Classic Cars", "Italian Cars Specialist"],
      "opening_hours": "Mon-Fri: 8:30-12:00, 13:30-18:00",
      "latitude": 49.5986,
      "longitude": 6.1198,
      "url": "https://www.muzzolini.lu"
    }
  ]
}
